NORAD_CAT_ID,OBJECT_NAME,OBJECT_TYPE,EPOCH,MEAN_MOTION,ECCENTRICITY,INCLINATION,RA_OF_ASC_NODE,ARG_OF_PERICENTER,MEAN_ANOMALY,BSTAR,MEAN_MOTION_DOT,MEAN_MOTION_DDOT,TLE_LINE0,TLE_LINE1,TLE_LINE2,SEMIMAJOR_AXIS,PERIOD,APOGEE,PERIGEE,DECAYED
55276.0,STARLINK-5261,PAYLOAD,2023-02-07 14:00:01,15.69961066,0.0003291,69.9994,15.3607,269.4023,280.9494,-0.00074562,-0.00089058,0.0,0 STARLINK-5261,1 55276U 23010H   23038.58334491 -.00089058  00000-0 -74562-3 0  9993,2 55276  69.9994  15.3607 0003291 269.4023 280.9494 15.69961066  1305,6737.145,91.722,361.228,356.793,0.0
55276.0,STARLINK-5261,PAYLOAD,2023-02-07 22:00:00,15.69939364,0.0003396,70.0003,14.4235,262.9786,10.704,-1.2814e-05,-1.754e-05,0.0,0 STARLINK-5261,1 55276U 23010H   23038.91667824 -.00001754  00000-0 -12814-4 0  9999,2 55276  70.0003  14.4235 0003396 262.9786  10.7040 15.69939364  3557,6737.207,91.723,361.36,356.785,0.0
55276.0,STARLINK-5261,PAYLOAD,2023-02-08 14:00:01,15.69898874,0.0003429,70.0002,12.549,275.1401,165.2476,7.7708e-05,9.132e-05,0.0,0 STARLINK-5261,1 55276U 23010H   23039.58334491  .00009132  00000-0  77708-4 0  9993,2 55276  70.0002  12.5490 0003429 275.1401 165.2476 15.69898874  3655,6737.323,91.726,361.499,356.878,0.0
55276.0,STARLINK-5261,PAYLOAD,2023-02-08 22:00:00,15.69935405,0.0003422,70.0005,11.6121,268.8361,254.8606,-1.2116e-05,-1.67e-05,0.0,0 STARLINK-5261,1 55276U 23010H   23039.91667824 -.00001670  00000-0 -12116-4 0  9992,2 55276  70.0005  11.6121 0003422 268.8361 254.8606 15.69935405  1308,6737.219,91.724,361.389,356.778,0.0
55276.0,STARLINK-5261,PAYLOAD,2023-02-09 06:00:00,15.69938958,0.0003648,70.0003,10.675,273.7399,333.3231,-0.0005652,-0.00067675,0.0,0 STARLINK-5261,1 55276U 23010H   23040.25001157 -.00067675  00000-0 -56520-3 0  9995,2 55276  70.0003  10.6750 0003648 273.7399 333.3231 15.69938958  3764,6737.209,91.723,361.531,356.616,0.0
55276.0,STARLINK-5261,PAYLOAD,2023-02-09 12:00:00,15.69889379,0.0003788,69.9999,9.9719,272.1012,307.4643,0.00019125,0.00022815,0.0,0 STARLINK-5261,1 55276U 23010H   23040.50001157  .00022815  00000-0  19125-3 0  9998,2 55276  69.9999   9.9719 0003788 272.1012 307.4643 15.69889379  1300,6737.35,91.726,361.768,356.663,0.0
55276.0,STARLINK-5261,PAYLOAD,2023-02-09 22:00:00,15.69915864,0.0003853,70.0004,8.8003,262.2865,151.3843,0.0002677,0.00032091,0.0,0 STARLINK-5261,1 55276U 23010H   23040.91667824  .00032091  00000-0  26770-3 0  9993,2 55276  70.0004   8.8003 0003853 262.2865 151.3843 15.69915864  3863,6737.275,91.725,361.736,356.544,0.0
55276.0,STARLINK-5261,PAYLOAD,2023-02-09 23:18:06,15.69909191,0.0003422,70.0004,8.6483,267.6563,92.4241,-7.2674e-06,-1.086e-05,0.0,0 STARLINK-5261,1 55276U 23010H   23040.97090782 -.00001086  00000-0 -72674-5 0  9990,2 55276  70.0004   8.6483 0003422 267.6563  92.4241 15.69909191  3873,6737.294,91.725,361.464,356.853,0.0
55276.0,STARLINK-5261,PAYLOAD,2023-02-10 03:53:21,15.69931384,0.0003336,70.0003,8.1108,266.0434,94.038,0.00010318,0.00012215,0.0,0 STARLINK-5261,1 55276U 23010H   23041.16205511  .00012215  00000-0  10318-3 0  9999,2 55276  70.0003   8.1108 0003336 266.0434  94.0380 15.69931384  4215,6737.23,91.724,361.343,356.848,0.0
55276.0,STARLINK-5261,PAYLOAD,2023-02-10 10:00:21,15.69944517,0.0003547,70.0003,7.3939,265.9256,94.1535,0.00015908,0.00018975,0.0,0 STARLINK-5261,1 55276U 23010H   23041.41691868  .00018975  00000-0  15908-3 0  9990,2 55276  70.0003   7.3939 0003547 265.9256  94.1535 15.69944517  3946,6737.193,91.723,361.447,356.668,0.0
55276.0,STARLINK-5261,PAYLOAD,2023-02-11 01:17:53,15.6991933,0.0004029,69.9999,5.6024,255.8825,104.1923,4.2837e-05,4.94e-05,0.0,0 STARLINK-5261,1 55276U 23010H   23042.05409371  .00004940  00000-0  42837-4 0  9996,2 55276  69.9999   5.6024 0004029 255.8825 104.1923 15.69919330  4049,6737.265,91.724,361.844,356.415,0.0
55276.0,STARLINK-5261,PAYLOAD,2023-02-11 08:56:38,15.69953523,0.000404,70.0002,4.7066,255.1845,104.8903,0.00019374,0.00023178,0.0,0 STARLINK-5261,1 55276U 23010H   23042.37267100  .00023178  00000-0  19374-3 0  9996,2 55276  70.0002   4.7066 0004040 255.1845 104.8903 15.69953523  4093,6737.167,91.722,361.754,356.31,0.0
55276.0,STARLINK-5261,PAYLOAD,2023-02-12 03:17:40,15.69946345,0.0003805,70.0,2.5541,248.0555,112.0236,0.00016719,0.00019958,0.0,0 STARLINK-5261,1 55276U 23010H   23043.13727316  .00019958  00000-0  16719-3 0  9992,2 55276  70.0000   2.5541 0003805 248.0555 112.0236 15.69946345  4210,6737.188,91.723,361.616,356.489,0.0
55276.0,STARLINK-5261,PAYLOAD,2023-02-12 04:49:25,15.69934474,0.0003472,70.0,2.3779,262.3064,97.7738,0.00018703,0.00022346,0.0,0 STARLINK-5261,1 55276U 23010H   23043.20099033  .00022346  00000-0  18703-3 0  9998,2 55276  70.0000   2.3779 0003472 262.3064  97.7738 15.69934474  4222,6737.221,91.724,361.426,356.747,0.0
55276.0,STARLINK-5261,PAYLOAD,2023-02-13 03:45:42,15.69932003,0.0004038,70.0,359.6909,267.8851,92.1883,6.0364e-05,7.055e-05,0.0,0 STARLINK-5261,1 55276U 23010H   23044.15673914  .00007055  00000-0  60364-4 0  9990,2 55276  70.0000 359.6909 0004038 267.8851  92.1883 15.69932003  4370,6737.229,91.724,361.814,356.373,0.0
55276.0,STARLINK-5261,PAYLOAD,2023-02-13 08:20:57,15.6993152,0.000409,70.0008,359.1537,267.2959,92.7768,4.9092e-05,5.696e-05,0.0,0 STARLINK-5261,1 55276U 23010H   23044.34788864  .00005696  00000-0  49092-4 0  9996,2 55276  70.0008 359.1537 0004090 267.2959  92.7768 15.69931520  4710,6737.23,91.724,361.85,356.339,0.0
55276.0,STARLINK-5261,PAYLOAD,2023-02-13 14:27:58,15.69917049,0.0003599,69.9999,358.4374,265.6022,94.4762,4.9912e-06,3.87e-06,0.0,0 STARLINK-5261,1 55276U 23010H   23044.60276131  .00000387  00000-0  49912-5 0  9998,2 55276  69.9999 358.4374 0003599 265.6022  94.4762 15.69917049  4446,6737.271,91.725,361.561,356.712,0.0
55276.0,STARLINK-5261,PAYLOAD,2023-02-13 20:34:44,15.70268898,0.0004884,69.9993,357.7202,274.8923,85.1716,0.00080076,0.00098641,0.0,0 STARLINK-5261,1 55276U 23010H   23044.85746081  .00098641  00000-0  80076-3 0  9995,2 55276  69.9993 357.7202 0004884 274.8923  85.1716 15.70268898  4485,6736.265,91.704,361.42,354.84,0.0
55276.0,STARLINK-5261,PAYLOAD,2023-02-15 01:37:33,15.70397446,0.0004409,70.0008,354.3145,292.6867,67.3862,0.00046201,0.00056836,0.0,0 STARLINK-5261,1 55276U 23010H   23046.06774993  .00056836  00000-0  46201-3 0  9995,2 55276  70.0008 354.3145 0004409 292.6867  67.3862 15.70397446  4679,6735.897,91.697,360.732,354.792,0.0
55276.0,STARLINK-5261,PAYLOAD,2023-02-16 02:06:17,15.69928085,0.0003582,70.0,351.4502,264.6272,95.4515,-2.1028e-05,-2.741e-05,0.0,0 STARLINK-5261,1 55276U 23010H   23047.08770697 -.00002741  00000-0 -21028-4 0  9994,2 55276  70.0000 351.4502 0003582 264.6272  95.4515 15.69928085  4838,6737.24,91.724,361.518,356.691,0.0
55276.0,STARLINK-5261,PAYLOAD,2023-02-16 11:16:49,15.69900132,0.000344,70.0,350.3747,273.0423,87.0379,-9.4189e-05,-0.00011512,0.0,0 STARLINK-5261,1 55276U 23010H   23047.47001819 -.00011512  00000-0 -94189-4 0  9994,2 55276  70.0000 350.3747 0003440 273.0423  87.0379 15.69900132  4896,6737.32,91.726,361.502,356.867,0.0
55276.0,STARLINK-5261,PAYLOAD,2023-02-16 12:48:34,15.69902769,0.0003595,69.9999,350.1972,274.5512,85.5273,-8.4392e-05,-0.00010339,0.0,0 STARLINK-5261,1 55276U 23010H   23047.53373440 -.00010339  00000-0 -84392-4 0  9994,2 55276  69.9999 350.1972 0003595 274.5512  85.5273 15.69902769  5215,6737.312,91.725,361.599,356.755,0.0
55276.0,STARLINK-5261,PAYLOAD,2023-02-16 17:23:50,15.69907601,0.0003493,69.9999,349.6574,274.4485,85.6312,-4.3736e-05,-5.465e-05,0.0,0 STARLINK-5261,1 55276U 23010H   23047.72488487 -.00005465  00000-0 -43736-4 0  9994,2 55276  69.9999 349.6574 0003493 274.4485  85.6312 15.69907601  4934,6737.298,91.725,361.517,356.81,0.0
55276.0,STARLINK-5261,PAYLOAD,2023-02-17 10:13:06,15.69889446,0.0003478,70.0005,347.6874,277.1661,82.9139,-8.2319e-05,-0.00010085,0.0,0 STARLINK-5261,1 55276U 23010H   23048.42577448 -.00010085  00000-0 -82319-4 0  9992,2 55276  70.0005 347.6874 0003478 277.1661  82.9139 15.69889446  5355,6737.35,91.726,361.559,356.872,0.0
55276.0,STARLINK-5261,PAYLOAD,2023-02-18 19:51:38,15.69927198,0.0003489,70.0008,343.7463,269.6029,90.4767,2.7095e-05,3.047e-05,0.0,0 STARLINK-5261,1 55276U 23010H   23049.82753223  .00003047  00000-0  27095-4 0  9992,2 55276  70.0008 343.7463 0003489 269.6029  90.4767 15.69927198  5263,6737.242,91.724,361.458,356.757,0.0
55276.0,STARLINK-5261,PAYLOAD,2023-02-19 11:09:10,15.69918254,0.0003406,70.001,341.9547,273.4165,86.6641,-1.4683e-05,-1.977e-05,0.0,0 STARLINK-5261,1 55276U 23010H   23050.46470257 -.00001977  00000-0 -14683-4 0  9998,2 55276  70.0010 341.9547 0003406 273.4165  86.6641 15.69918254  5364,6737.268,91.725,361.428,356.838,0.0
55276.0,STARLINK-5261,PAYLOAD,2023-02-19 12:40:55,15.69919986,0.0003441,70.0009,341.7762,273.4917,86.5885,-8.7399e-06,-1.263e-05,0.0,0 STARLINK-5261,1 55276U 23010H   23050.52841906 -.00001263  00000-0 -87399-5 0  9991,2 55276  70.0009 341.7762 0003441 273.4917  86.5885 15.69919986  5680,6737.263,91.724,361.446,356.81,0.0
55276.0,STARLINK-5261,PAYLOAD,2023-02-20 05:30:11,15.69948491,0.0003476,70.0016,339.8047,264.9032,95.1767,0.00025806,0.00030963,0.0,0 STARLINK-5261,1 55276U 23010H   23051.22929806  .00030963  00000-0  25806-3 0  9995,2 55276  70.0016 339.8047 0003476 264.9032  95.1767 15.69948491  5489,6737.181,91.723,361.388,356.705,0.0
55276.0,STARLINK-5261,PAYLOAD,2023-02-20 10:05:26,15.69926353,0.0003375,70.0016,339.2678,269.7821,90.2988,5.5357e-05,6.449e-05,0.0,0 STARLINK-5261,1 55276U 23010H   23051.42045108  .00006449  00000-0  55357-4 0  9998,2 55276  70.0016 339.2678 0003375 269.7821  90.2988 15.69926353  5518,6737.245,91.724,361.384,356.836,0.0
55276.0,STARLINK-5261,PAYLOAD,2023-02-20 13:08:57,15.6993422,0.0003475,70.0016,338.9096,266.6502,93.4296,0.00011114,0.00013178,0.0,0 STARLINK-5261,1 55276U 23010H   23051.54788332  .00013178  00000-0  11114-3 0  9993,2 55276  70.0016 338.9096 0003475 266.6502  93.4296 15.69934220  5846,6737.222,91.724,361.428,356.746,0.0
